SHIJIAN-25 (SJ-25)      
1 62485U 25002A   26065.76652373 -.00000352  00000+0  00000+0 0  9991
2 62485   4.8711  61.7604 0048632 166.6315 339.2649  1.00278908  4334
BREEZE-M DEB            
1 62722U 08003D   26056.40651192 -.00000367  00000+0  00000+0 0  9992
2 62722  11.1985  27.3192 0795196 184.5329 174.7885  1.01905322 11633
TJS-14                  
1 62804U 25017A   26066.15568902  .00000112  00000+0  00000+0 0  9993
2 62804   1.0212 290.1232 0002297  56.4742 252.6506  1.00271539  4249
NVS-02 (IRNSS-1K)       
1 62850U 25020A   26066.07786587  .00000788  00000+0  66793-3 0  9994
2 62850  20.8378 296.7346 7350007  81.5207 348.1073  2.17723396  8759
SPAINSAT NG I           
1 62852U 25021A   26065.94387473  .00000000  00000+0  00000+0 0  9995
2 62852   0.0215 156.6914 0000194 187.8019 188.9346  1.00276020  2967
FALCON 9 R/B            
1 62853U 25021B   26063.48147760 -.00000350  00000+0  27214-3 0  9995
2 62853  24.8794 276.5761 8262999 289.3584   4.4290  1.11100801  4420
QZS-6 (MICHIBIKI-6)     
1 62876U 25023A   26066.09866209 -.00000235  00000+0  00000+0 0  9990
2 62876   0.0301 288.5034 0001825  56.7759 305.5247  1.00269602  3937
ZHONGXING-10R           
1 63075U 25036A   26066.03132181 -.00000355  00000+0  00000+0 0  9998
2 63075   0.0906 261.2416 0001209 305.0496  80.2153  1.00275014  3933
TJS-15                  
1 63157U 25045A   26065.64784810 -.00000269  00000+0  00000+0 0  9991
2 63157   0.2184  87.7717 0006977 267.5685 136.5872  1.00275590  3738
TIANLIAN 2-04           
1 63361U 25062A   26066.15253190 -.00000141  00000+0  00000+0 0  9995
2 63361   4.6368 275.8319 0034828   9.6568  14.3170  1.00271803  3586
TJS-16                  
1 63397U 25064A   26065.68469620 -.00000109  00000+0  00000+0 0  9994
2 63397   0.8336  81.9429 0005206 259.7918 229.7299  1.00272587  3361
TJS-17                  
1 63524U 25073A   26066.18148128 -.00000072  00000+0  00000+0 0  9998
2 63524   0.8002  83.5282 0004435 251.6477  59.5289  1.00272254  3260
TIANLIAN 2-05           
1 63662U 25084A   26066.15612236  .00000119  00000+0  00000+0 0  9997
2 63662   4.7098 280.9427 0003233  84.0804 236.4250  1.00273988  3351
TJS-19                  
1 63924U 25097A   26066.18164272 -.00000279  00000+0  00000+0 0  9995
2 63924   3.4607 315.8455 0003454 337.5412  78.0826  1.00275912  3122
CHINASAT 3B             
1 64062U 25106A   26064.90160946  .00000000  00000+0  00000+0 0  9993
2 64062   0.0213 135.9648 0001773 194.0821 325.4661  1.00268665  3021
SXM-10                  
1 64290U 25122A   26066.14072602 -.00000019  00000+0  00000+0 0  9994
2 64290   0.0254  64.0653 0002750 306.2423  89.0241  1.00273097  2669
INTELSAT 33E DEB        
1 64394U 16053Y   26064.86681508 -.00000183  00000+0  00000+0 0  9992
2 64394   1.1501  38.2941 0627655 339.8011  18.6397  1.08356960  5321
