[{"OBJECT_NAME":"SHIJIAN-25 (SJ-25)","OBJECT_ID":"2025-002A","EPOCH":"2026-03-06T18:23:47.650272","MEAN_MOTION":1.00278908,"ECCENTRICITY":0.0048632,"INCLINATION":4.8711,"RA_OF_ASC_NODE":61.7604,"ARG_OF_PERICENTER":166.6315,"MEAN_ANOMALY":339.2649,"EPHEMERIS_TYPE":0,"CLASSIFICATION_TYPE":"U","NORAD_CAT_ID":62485,"ELEMENT_SET_NO":999,"REV_AT_EPOCH":433,"BSTAR":0,"MEAN_MOTION_DOT":-3.52e-6,"MEAN_MOTION_DDOT":0},{"OBJECT_NAME":"BREEZE-M DEB","OBJECT_ID":"2008-003D","EPOCH":"2026-02-25T09:45:22.629888","MEAN_MOTION":1.01905322,"ECCENTRICITY":0.07951967,"INCLINATION":11.1985,"RA_OF_ASC_NODE":27.3192,"ARG_OF_PERICENTER":184.5329,"MEAN_ANOMALY":174.7885,"EPHEMERIS_TYPE":0,"CLASSIFICATION_TYPE":"U","NORAD_CAT_ID":62722,"ELEMENT_SET_NO":999,"REV_AT_EPOCH":1163,"BSTAR":0,"MEAN_MOTION_DOT":-3.67e-6,"MEAN_MOTION_DDOT":0},{"OBJECT_NAME":"TJS-14","OBJECT_ID":"2025-017A","EPOCH":"2026-03-07T03:44:11.531328","MEAN_MOTION":1.00271539,"ECCENTRICITY":0.0002297,"INCLINATION":1.0212,"RA_OF_ASC_NODE":290.1232,"ARG_OF_PERICENTER":56.4742,"MEAN_ANOMALY":252.6506,"EPHEMERIS_TYPE":0,"CLASSIFICATION_TYPE":"U","NORAD_CAT_ID":62804,"ELEMENT_SET_NO":999,"REV_AT_EPOCH":424,"BSTAR":0,"MEAN_MOTION_DOT":1.12e-6,"MEAN_MOTION_DDOT":0},{"OBJECT_NAME":"NVS-02 (IRNSS-1K)","OBJECT_ID":"2025-020A","EPOCH":"2026-03-07T01:52:07.611168","MEAN_MOTION":2.17723396,"ECCENTRICITY":0.7350007,"INCLINATION":20.8378,"RA_OF_ASC_NODE":296.7346,"ARG_OF_PERICENTER":81.5207,"MEAN_ANOMALY":348.1073,"EPHEMERIS_TYPE":0,"CLASSIFICATION_TYPE":"U","NORAD_CAT_ID":62850,"ELEMENT_SET_NO":999,"REV_AT_EPOCH":875,"BSTAR":0.00066793,"MEAN_MOTION_DOT":7.88e-6,"MEAN_MOTION_DDOT":0},{"OBJECT_NAME":"SPAINSAT NG I","OBJECT_ID":"2025-021A","EPOCH":"2026-03-06T22:39:10.776672","MEAN_MOTION":1.0027602,"ECCENTRICITY":1.94e-5,"INCLINATION":0.0215,"RA_OF_ASC_NODE":156.6914,"ARG_OF_PERICENTER":187.8019,"MEAN_ANOMALY":188.9346,"EPHEMERIS_TYPE":0,"CLASSIFICATION_TYPE":"U","NORAD_CAT_ID":62852,"ELEMENT_SET_NO":999,"REV_AT_EPOCH":296,"BSTAR":0,"MEAN_MOTION_DOT":0,"MEAN_MOTION_DDOT":0},{"OBJECT_NAME":"FALCON 9 R/B","OBJECT_ID":"2025-021B","EPOCH":"2026-03-04T11:33:19.664640","MEAN_MOTION":1.11100801,"ECCENTRICITY":0.8262999,"INCLINATION":24.8794,"RA_OF_ASC_NODE":276.5761,"ARG_OF_PERICENTER":289.3584,"MEAN_ANOMALY":4.429,"EPHEMERIS_TYPE":0,"CLASSIFICATION_TYPE":"U","NORAD_CAT_ID":62853,"ELEMENT_SET_NO":999,"REV_AT_EPOCH":442,"BSTAR":0.00027214,"MEAN_MOTION_DOT":-3.5e-6,"MEAN_MOTION_DDOT":0},{"OBJECT_NAME":"QZS-6 (MICHIBIKI-6)","OBJECT_ID":"2025-023A","EPOCH":"2026-03-07T02:22:04.404576","MEAN_MOTION":1.00269602,"ECCENTRICITY":0.0001825,"INCLINATION":0.0301,"RA_OF_ASC_NODE":288.5034,"ARG_OF_PERICENTER":56.7759,"MEAN_ANOMALY":305.5247,"EPHEMERIS_TYPE":0,"CLASSIFICATION_TYPE":"U","NORAD_CAT_ID":62876,"ELEMENT_SET_NO":999,"REV_AT_EPOCH":393,"BSTAR":0,"MEAN_MOTION_DOT":-2.35e-6,"MEAN_MOTION_DDOT":0},{"OBJECT_NAME":"ZHONGXING-10R","OBJECT_ID":"2025-036A","EPOCH":"2026-03-07T00:45:06.204384","MEAN_MOTION":1.00275014,"ECCENTRICITY":0.0001209,"INCLINATION":0.0906,"RA_OF_ASC_NODE":261.2416,"ARG_OF_PERICENTER":305.0496,"MEAN_ANOMALY":80.2153,"EPHEMERIS_TYPE":0,"CLASSIFICATION_TYPE":"U","NORAD_CAT_ID":63075,"ELEMENT_SET_NO":999,"REV_AT_EPOCH":393,"BSTAR":0,"MEAN_MOTION_DOT":-3.55e-6,"MEAN_MOTION_DDOT":0},{"OBJECT_NAME":"TJS-15","OBJECT_ID":"2025-045A","EPOCH":"2026-03-06T15:32:54.075840","MEAN_MOTION":1.0027559,"ECCENTRICITY":0.0006977,"INCLINATION":0.2184,"RA_OF_ASC_NODE":87.7717,"ARG_OF_PERICENTER":267.5685,"MEAN_ANOMALY":136.5872,"EPHEMERIS_TYPE":0,"CLASSIFICATION_TYPE":"U","NORAD_CAT_ID":63157,"ELEMENT_SET_NO":999,"REV_AT_EPOCH":373,"BSTAR":0,"MEAN_MOTION_DOT":-2.69e-6,"MEAN_MOTION_DDOT":0},{"OBJECT_NAME":"TIANLIAN 2-04","OBJECT_ID":"2025-062A","EPOCH":"2026-03-07T03:39:38.756160","MEAN_MOTION":1.00271803,"ECCENTRICITY":0.0034828,"INCLINATION":4.6368,"RA_OF_ASC_NODE":275.8319,"ARG_OF_PERICENTER":9.6568,"MEAN_ANOMALY":14.317,"EPHEMERIS_TYPE":0,"CLASSIFICATION_TYPE":"U","NORAD_CAT_ID":63361,"ELEMENT_SET_NO":999,"REV_AT_EPOCH":358,"BSTAR":0,"MEAN_MOTION_DOT":-1.41e-6,"MEAN_MOTION_DDOT":0},{"OBJECT_NAME":"TJS-16","OBJECT_ID":"2025-064A","EPOCH":"2026-03-06T16:25:57.751680","MEAN_MOTION":1.00272587,"ECCENTRICITY":0.0005206,"INCLINATION":0.8336,"RA_OF_ASC_NODE":81.9429,"ARG_OF_PERICENTER":259.7918,"MEAN_ANOMALY":229.7299,"EPHEMERIS_TYPE":0,"CLASSIFICATION_TYPE":"U","NORAD_CAT_ID":63397,"ELEMENT_SET_NO":999,"REV_AT_EPOCH":336,"BSTAR":0,"MEAN_MOTION_DOT":-1.09e-6,"MEAN_MOTION_DDOT":0},{"OBJECT_NAME":"TJS-17","OBJECT_ID":"2025-073A","EPOCH":"2026-03-07T04:21:19.982592","MEAN_MOTION":1.00272254,"ECCENTRICITY":0.0004435,"INCLINATION":0.8002,"RA_OF_ASC_NODE":83.5282,"ARG_OF_PERICENTER":251.6477,"MEAN_ANOMALY":59.5289,"EPHEMERIS_TYPE":0,"CLASSIFICATION_TYPE":"U","NORAD_CAT_ID":63524,"ELEMENT_SET_NO":999,"REV_AT_EPOCH":326,"BSTAR":0,"MEAN_MOTION_DOT":-7.2e-7,"MEAN_MOTION_DDOT":0},{"OBJECT_NAME":"TIANLIAN 2-05","OBJECT_ID":"2025-084A","EPOCH":"2026-03-07T03:44:48.971904","MEAN_MOTION":1.00273988,"ECCENTRICITY":0.0003233,"INCLINATION":4.7098,"RA_OF_ASC_NODE":280.9427,"ARG_OF_PERICENTER":84.0804,"MEAN_ANOMALY":236.425,"EPHEMERIS_TYPE":0,"CLASSIFICATION_TYPE":"U","NORAD_CAT_ID":63662,"ELEMENT_SET_NO":999,"REV_AT_EPOCH":335,"BSTAR":0,"MEAN_MOTION_DOT":1.19e-6,"MEAN_MOTION_DDOT":0},{"OBJECT_NAME":"TJS-19","OBJECT_ID":"2025-097A","EPOCH":"2026-03-07T04:21:33.931008","MEAN_MOTION":1.00275912,"ECCENTRICITY":0.0003454,"INCLINATION":3.4607,"RA_OF_ASC_NODE":315.8455,"ARG_OF_PERICENTER":337.5412,"MEAN_ANOMALY":78.0826,"EPHEMERIS_TYPE":0,"CLASSIFICATION_TYPE":"U","NORAD_CAT_ID":63924,"ELEMENT_SET_NO":999,"REV_AT_EPOCH":312,"BSTAR":0,"MEAN_MOTION_DOT":-2.79e-6,"MEAN_MOTION_DDOT":0},{"OBJECT_NAME":"CHINASAT 3B","OBJECT_ID":"2025-106A","EPOCH":"2026-03-05T21:38:19.057344","MEAN_MOTION":1.00268665,"ECCENTRICITY":0.00017739,"INCLINATION":0.0213,"RA_OF_ASC_NODE":135.9648,"ARG_OF_PERICENTER":194.0821,"MEAN_ANOMALY":325.4661,"EPHEMERIS_TYPE":0,"CLASSIFICATION_TYPE":"U","NORAD_CAT_ID":64062,"ELEMENT_SET_NO":999,"REV_AT_EPOCH":302,"BSTAR":0,"MEAN_MOTION_DOT":0,"MEAN_MOTION_DDOT":0},{"OBJECT_NAME":"SXM-10","OBJECT_ID":"2025-122A","EPOCH":"2026-03-07T03:22:38.728128","MEAN_MOTION":1.00273097,"ECCENTRICITY":0.000275,"INCLINATION":0.0254,"RA_OF_ASC_NODE":64.0653,"ARG_OF_PERICENTER":306.2423,"MEAN_ANOMALY":89.0241,"EPHEMERIS_TYPE":0,"CLASSIFICATION_TYPE":"U","NORAD_CAT_ID":64290,"ELEMENT_SET_NO":999,"REV_AT_EPOCH":266,"BSTAR":0,"MEAN_MOTION_DOT":-1.9e-7,"MEAN_MOTION_DDOT":0},{"OBJECT_NAME":"INTELSAT 33E DEB","OBJECT_ID":"2016-053Y","EPOCH":"2026-03-05T20:48:12.822912","MEAN_MOTION":1.0835696,"ECCENTRICITY":0.06276553,"INCLINATION":1.1501,"RA_OF_ASC_NODE":38.2941,"ARG_OF_PERICENTER":339.8011,"MEAN_ANOMALY":18.6397,"EPHEMERIS_TYPE":0,"CLASSIFICATION_TYPE":"U","NORAD_CAT_ID":64394,"ELEMENT_SET_NO":999,"REV_AT_EPOCH":532,"BSTAR":0,"MEAN_MOTION_DOT":-1.83e-6,"MEAN_MOTION_DDOT":0}]
